[{"OBJECT_NAME":"KUIPER-00129","OBJECT_ID":"2025-228M","EPOCH":"2026-03-09T22:41:03.132960","MEAN_MOTION":14.7990981,"ECCENTRICITY":7.751e-5,"INCLINATION":51.9026,"RA_OF_ASC_NODE":346.9739,"ARG_OF_PERICENTER":62.2574,"MEAN_ANOMALY":297.8467,"EPHEMERIS_TYPE":0,"CLASSIFICATION_TYPE":"U","NORAD_CAT_ID":65958,"ELEMENT_SET_NO":999,"REV_AT_EPOCH":2344,"BSTAR":-0.00027012621,"MEAN_MOTION_DOT":-2.279e-5,"MEAN_MOTION_DDOT":0},{"OBJECT_NAME":"CZ-6A DEB","OBJECT_ID":"2022-151RT","EPOCH":"2026-03-09T01:38:33.217728","MEAN_MOTION":14.71073944,"ECCENTRICITY":0.00965087,"INCLINATION":98.4375,"RA_OF_ASC_NODE":112.095,"ARG_OF_PERICENTER":168.4742,"MEAN_ANOMALY":191.8705,"EPHEMERIS_TYPE":0,"CLASSIFICATION_TYPE":"U","NORAD_CAT_ID":54930,"ELEMENT_SET_NO":999,"REV_AT_EPOCH":17590,"BSTAR":0.0019761475,"MEAN_MOTION_DOT":0.00013021,"MEAN_MOTION_DDOT":0}]
